STARLINK-1851
1 26783C 20074AW  21325.13772847  .00003239  00000-0  21704-3 0  3250
2 26783  53.0533 157.6127 0001976  79.4478 301.5881 15.06389009    18
